start=new Date('2022-03-08T00:00:00.000Z').valueOf();
sats=[{"FILE":"3349821","MEAN_MOTION_DDOT":"0.0000000000000","OBJECT_TYPE":"PAYLOAD","RA_OF_ASC_NODE":"274.0040","ARG_OF_PERICENTER":"116.0484","MEAN_ANOMALY":"244.0661","PERIOD":"95.815","TLE_LINE2":"2 45418  52.9996 274.0040 0001535 116.0484 244.0661 15.02899605108668","BSTAR":"0.00076059000000","RCS_SIZE":"LARGE","EPHEMERIS_TYPE":"0","INCLINATION":"52.9996","OBJECT_NAME":"STARLINK-1299","MEAN_ELEMENT_THEORY":"SGP4","CENTER_NAME":"EARTH","CLASSIFICATION_TYPE":"U","GP_ID":"198186185","TLE_LINE1":"1 45418U 20019BL  22066.92760818  .00010059  00000-0  76059-3 0  9996","COUNTRY_CODE":"US","EPOCH":"2022-03-07T22:15:45.346752","ECCENTRICITY":"0.00015350","APOAPSIS":"559.027","TIME_SYSTEM":"UTC","SITE":"AFETR","ELEMENT_SET_NO":"999","MEAN_MOTION":"15.02899605","REF_FRAME":"TEME","SEMIMAJOR_AXIS":"6936.098","LAUNCH_DATE":"2020-03-18","OBJECT_ID":"2020-019BL","MEAN_MOTION_DOT":"0.00010059","NORAD_CAT_ID":"45418","DECAY_DATE":null,"PERIAPSIS":"556.898","REV_AT_EPOCH":"10866"},{"REF_FRAME":"TEME","SEMIMAJOR_AXIS":"6925.324","LAUNCH_DATE":"2020-03-18","SITE":"AFETR","ELEMENT_SET_NO":"999","MEAN_MOTION":"15.06407945","MEAN_MOTION_DOT":"-0.00000819","OBJECT_ID":"2020-019BM","DECAY_DATE":null,"NORAD_CAT_ID":"45419","REV_AT_EPOCH":"10899","PERIAPSIS":"546.156","COUNTRY_CODE":"US","TLE_LINE1":"1 45419U 20019BM  22066.90491776 -.00000819  00000-0 -36086-4 0  9991","GP_ID":"198186437","EPOCH":"2022-03-07T21:43:04.894464","ECCENTRICITY":"0.00014920","TIME_SYSTEM":"UTC","APOAPSIS":"548.222","TLE_LINE2":"2 45419  53.0553 253.3153 0001492  71.4532 288.6619 15.06407945108994","RCS_SIZE":"LARGE","EPHEMERIS_TYPE":"0","BSTAR":"-0.00003608600000","OBJECT_NAME":"STARLINK-1308","INCLINATION":"53.0553","CENTER_NAME":"EARTH","MEAN_ELEMENT_THEORY":"SGP4","CLASSIFICATION_TYPE":"U","FILE":"3349821","OBJECT_TYPE":"PAYLOAD","RA_OF_ASC_NODE":"253.3153","MEAN_MOTION_DDOT":"0.0000000000000","MEAN_ANOMALY":"288.6619","PERIOD":"95.592","ARG_OF_PERICENTER":"71.4532"},{"REV_AT_EPOCH":"10459","PERIAPSIS":"546.170","DECAY_DATE":null,"NORAD_CAT_ID":"45531","MEAN_MOTION_DOT":"-0.00000698","OBJECT_ID":"2020-025A","SEMIMAJOR_AXIS":"6925.354","REF_FRAME":"TEME","LAUNCH_DATE":"2020-04-22","SITE":"AFETR","ELEMENT_SET_NO":"999","MEAN_MOTION":"15.06398308","TIME_SYSTEM":"UTC","APOAPSIS":"548.267","EPOCH":"2022-03-07T17:46:52.454496","ECCENTRICITY":"0.00015140","COUNTRY_CODE":"US","TLE_LINE1":"1 45531U 20025A   22066.74088489 -.00000698  00000-0 -27951-4 0  9994","GP_ID":"198186699","CLASSIFICATION_TYPE":"U","OBJECT_NAME":"STARLINK-1329","INCLINATION":"53.0559","MEAN_ELEMENT_THEORY":"SGP4","CENTER_NAME":"EARTH","RCS_SIZE":"LARGE","EPHEMERIS_TYPE":"0","BSTAR":"-0.00002795100000","TLE_LINE2":"2 45531  53.0559 194.0499 0001514  80.0372 280.0788 15.06398308104599","MEAN_ANOMALY":"280.0788","PERIOD":"95.592","ARG_OF_PERICENTER":"80.0372","RA_OF_ASC_NODE":"194.0499","OBJECT_TYPE":"PAYLOAD","MEAN_MOTION_DDOT":"0.0000000000000","FILE":"3349821"},{"PERIOD":"95.592","MEAN_ANOMALY":"275.4070","ARG_OF_PERICENTER":"84.7066","RA_OF_ASC_NODE":"194.0022","OBJECT_TYPE":"PAYLOAD","MEAN_MOTION_DDOT":"0.0000000000000","FILE":"3349821","CLASSIFICATION_TYPE":"U","CENTER_NAME":"EARTH","MEAN_ELEMENT_THEORY":"SGP4","INCLINATION":"53.0535","OBJECT_NAME":"STARLINK-1338","EPHEMERIS_TYPE":"0","RCS_SIZE":"LARGE","BSTAR":"-0.00010993000000","TLE_LINE2":"2 45532  53.0535 194.0022 0001288  84.7066 275.4070 15.06394743104596","TIME_SYSTEM":"UTC","APOAPSIS":"548.122","ECCENTRICITY":"0.00012880","EPOCH":"2022-03-07T18:02:47.683392","GP_ID":"198185447","TLE_LINE1":"1 45532U 20025B   22066.75194078 -.00001918  00000-0 -10993-3 0  9991","COUNTRY_CODE":"US","REV_AT_EPOCH":"10459","PERIAPSIS":"546.338","DECAY_DATE":null,"NORAD_CAT_ID":"45532","MEAN_MOTION_DOT":"-0.00001918","OBJECT_ID":"2020-025B","LAUNCH_DATE":"2020-04-22","SEMIMAJOR_AXIS":"6925.365","REF_FRAME":"TEME","MEAN_MOTION":"15.06394743","ELEMENT_SET_NO":"999","SITE":"AFETR"},{"MEAN_MOTION_DDOT":"0.0000000000000","OBJECT_TYPE":"PAYLOAD","RA_OF_ASC_NODE":"175.0829","FILE":"3349821","ARG_OF_PERICENTER":"6.8055","MEAN_ANOMALY":"353.2991","PERIOD":"93.721","BSTAR":"0.00202500000000","RCS_SIZE":"LARGE","EPHEMERIS_TYPE":"0","TLE_LINE2":"2 45533  53.0467 175.0829 0003282   6.8055 353.2991 15.36483301104863","CLASSIFICATION_TYPE":"U","INCLINATION":"53.0467","OBJECT_NAME":"STARLINK-1339","CENTER_NAME":"EARTH","MEAN_ELEMENT_THEORY":"SGP4","EPOCH":"2022-03-07T18:59:09.944448","ECCENTRICITY":"0.00032820","COUNTRY_CODE":"US","TLE_LINE1":"1 45533U 20025C   22066.79108732  .00073477  00000-0  20250-2 0  9991","GP_ID":"198186197","APOAPSIS":"458.763","TIME_SYSTEM":"UTC","MEAN_MOTION_DOT":"0.00073477","OBJECT_ID":"2020-025C","SITE":"AFETR","MEAN_MOTION":"15.36483301","ELEMENT_SET_NO":"999","REF_FRAME":"TEME","SEMIMAJOR_AXIS":"6834.655","LAUNCH_DATE":"2020-04-22","REV_AT_EPOCH":"10486","PERIAPSIS":"454.277","NORAD_CAT_ID":"45533","DECAY_DATE":null},{"NORAD_CAT_ID":"45534","DECAY_DATE":null,"PERIAPSIS":"546.339","REV_AT_EPOCH":"10458","SITE":"AFETR","ELEMENT_SET_NO":"999","MEAN_MOTION":"15.06386996","SEMIMAJOR_AXIS":"6925.388","REF_FRAME":"TEME","LAUNCH_DATE":"2020-04-22","MEAN_MOTION_DOT":"-0.00001626","OBJECT_ID":"2020-025D","APOAPSIS":"548.168","TIME_SYSTEM":"UTC","TLE_LINE1":"1 45534U 20025D   22066.69665793 -.00001626  00000-0 -90322-4 0  9994","GP_ID":"198186449","COUNTRY_CODE":"US","EPOCH":"2022-03-07T16:43:11.245152","ECCENTRICITY":"0.00013210","OBJECT_NAME":"STARLINK-1341","INCLINATION":"53.0538","MEAN_ELEMENT_THEORY":"SGP4","CENTER_NAME":"EARTH","CLASSIFICATION_TYPE":"U","TLE_LINE2":"2 45534  53.0538 194.2480 0001321  84.7998 275.3142 15.06386996104582","BSTAR":"-0.00009032200000","RCS_SIZE":"LARGE","EPHEMERIS_TYPE":"0","ARG_OF_PERICENTER":"84.7998","MEAN_ANOMALY":"275.3142","PERIOD":"95.593","FILE":"3349821","MEAN_MOTION_DDOT":"0.0000000000000","OBJECT_TYPE":"PAYLOAD","RA_OF_ASC_NODE":"194.2480"},{"APOAPSIS":"548.167","TIME_SYSTEM":"UTC","COUNTRY_CODE":"US","TLE_LINE1":"1 45535U 20025E   22066.71508380 -.00002958  00000-0 -17980-3 0  9993","GP_ID":"198187199","EPOCH":"2022-03-07T17:09:43.240320","ECCENTRICITY":"0.00013410","NORAD_CAT_ID":"45535","DECAY_DATE":null,"PERIAPSIS":"546.310","REV_AT_EPOCH":"10459","SITE":"AFETR","ELEMENT_SET_NO":"999","MEAN_MOTION":"15.06391908","REF_FRAME":"TEME","SEMIMAJOR_AXIS":"6925.373","LAUNCH_DATE":"2020-04-22","MEAN_MOTION_DOT":"-0.00002958","OBJECT_ID":"2020-025E","ARG_OF_PERICENTER":"65.9664","MEAN_ANOMALY":"294.1466","PERIOD":"95.593","FILE":"3349821","MEAN_MOTION_DDOT":"0.0000000000000","OBJECT_TYPE":"PAYLOAD","RA_OF_ASC_NODE":"194.1730","INCLINATION":"53.0519","OBJECT_NAME":"STARLINK-1350","MEAN_ELEMENT_THEORY":"SGP4","CENTER_NAME":"EARTH","CLASSIFICATION_TYPE":"U","TLE_LINE2":"2 45535  53.0519 194.1730 0001341  65.9664 294.1466 15.06391908104590","BSTAR":"-0.00017980000000","RCS_SIZE":"LARGE","EPHEMERIS_TYPE":"0"},{"PERIOD":"95.593","MEAN_ANOMALY":"284.7836","ARG_OF_PERICENTER":"75.3308","FILE":"3349821","OBJECT_TYPE":"PAYLOAD","RA_OF_ASC_NODE":"193.8508","MEAN_MOTION_DDOT":"0.0000000000000","MEAN_ELEMENT_THEORY":"SGP4","CENTER_NAME":"EARTH","INCLINATION":"53.0545","OBJECT_NAME":"STARLINK-1352","CLASSIFICATION_TYPE":"U","TLE_LINE2":"2 45536  53.0545 193.8508 0001403  75.3308 284.7836 15.06386318104593","EPHEMERIS_TYPE":"0","RCS_SIZE":"LARGE","BSTAR":"-0.00009990900000","TIME_SYSTEM":"UTC","APOAPSIS":"548.227","TLE_LINE1":"1 45536U 20025F   22066.78512566 -.00001769  00000-0 -99909-4 0  9993","COUNTRY_CODE":"US","GP_ID":"198185947","ECCENTRICITY":"0.00014030","EPOCH":"2022-03-07T18:50:34.857024","DECAY_DATE":null,"NORAD_CAT_ID":"45536","PERIAPSIS":"546.284","REV_AT_EPOCH":"10459","LAUNCH_DATE":"2020-04-22","SEMIMAJOR_AXIS":"6925.390","REF_FRAME":"TEME","MEAN_MOTION":"15.06386318","ELEMENT_SET_NO":"999","SITE":"AFETR","OBJECT_ID":"2020-025F","MEAN_MOTION_DOT":"-0.00001769"},{"MEAN_MOTION_DDOT":"0.0000000000000","OBJECT_TYPE":"PAYLOAD","RA_OF_ASC_NODE":"159.4686","FILE":"3349821","ARG_OF_PERICENTER":"54.9710","MEAN_ANOMALY":"305.1507","PERIOD":"94.836","BSTAR":"0.00128150000000","RCS_SIZE":"LARGE","EPHEMERIS_TYPE":"0","TLE_LINE2":"2 45537  53.0019 159.4686 0002385  54.9710 305.1507 15.18404362105053","CLASSIFICATION_TYPE":"U","OBJECT_NAME":"STARLINK-1353","INCLINATION":"53.0019","CENTER_NAME":"EARTH","MEAN_ELEMENT_THEORY":"SGP4","EPOCH":"2022-03-07T17:52:57.205056","ECCENTRICITY":"0.00023850","TLE_LINE1":"1 45537U 20025G   22066.74510654  .00026467  00000-0  12815-2 0  9995","GP_ID":"198185698","COUNTRY_CODE":"US","APOAPSIS":"512.308","TIME_SYSTEM":"UTC","OBJECT_ID":"2020-025G","MEAN_MOTION_DOT":"0.00026467","SITE":"AFETR","ELEMENT_SET_NO":"999","MEAN_MOTION":"15.18404362","SEMIMAJOR_AXIS":"6888.800","REF_FRAME":"TEME","LAUNCH_DATE":"2020-04-22","PERIAPSIS":"509.022","REV_AT_EPOCH":"10505","NORAD_CAT_ID":"45537","DECAY_DATE":null},{"FILE":"3349821","RA_OF_ASC_NODE":"194.0333","OBJECT_TYPE":"PAYLOAD","MEAN_MOTION_DDOT":"0.0000000000000","MEAN_ANOMALY":"283.6362","PERIOD":"95.593","ARG_OF_PERICENTER":"76.4781","TLE_LINE2":"2 45538  53.0541 194.0333 0001382  76.4781 283.6362 15.06393212104596","RCS_SIZE":"LARGE","EPHEMERIS_TYPE":"0","BSTAR":"-0.00001799100000","OBJECT_NAME":"STARLINK-1362","INCLINATION":"53.0541","MEAN_ELEMENT_THEORY":"SGP4","CENTER_NAME":"EARTH","CLASSIFICATION_TYPE":"U","COUNTRY_CODE":"US","TLE_LINE1":"1 45538U 20025H   22066.74456999 -.00000549  00000-0 -17991-4 0  9994","GP_ID":"198186949","EPOCH":"2022-03-07T17:52:10.847136","ECCENTRICITY":"0.00013820","TIME_SYSTEM":"UTC","APOAPSIS":"548.191","SEMIMAJOR_AXIS":"6925.369","REF_FRAME":"TEME","LAUNCH_DATE":"2020-04-22","SITE":"AFETR","MEAN_MOTION":"15.06393212","ELEMENT_SET_NO":"999","MEAN_MOTION_DOT":"-0.00000549","OBJECT_ID":"2020-025H","DECAY_DATE":null,"NORAD_CAT_ID":"45538","REV_AT_EPOCH":"10459","PERIAPSIS":"546.277"}];
